CCSDS_OMM_VERS = 2.0
CREATION_DATE  = 
ORIGINATOR     = 

OBJECT_NAME    = ATLAS CENTAUR 2
OBJECT_ID      = 1963-047A
CENTER_NAME    = EARTH
REF_FRAME      = TEME
TIME_SYSTEM    = UTC
MEAN_ELEMENT_THEORY = SGP/SGP4

EPOCH          = 2025-12-28T01:37:36.198048
MEAN_MOTION    = 14.11826180
ECCENTRICITY   = .0548608
INCLINATION    = 30.3530
RA_OF_ASC_NODE = 235.8352
ARG_OF_PERICENTER = 169.2070
MEAN_ANOMALY   = 192.0853

EPHEMERIS_TYPE = 0
CLASSIFICATION_TYPE = U
NORAD_CAT_ID   = 694
ELEMENT_SET_NO = 999
REV_AT_EPOCH   = 12149
BSTAR          = .27568E-3
MEAN_MOTION_DOT = .2352E-4
MEAN_MOTION_DDOT = 0

CCSDS_OMM_VERS = 2.0
CREATION_DATE  = 
ORIGINATOR     = 

OBJECT_NAME    = THOR AGENA D R/B
OBJECT_ID      = 1964-002A
CENTER_NAME    = EARTH
REF_FRAME      = TEME
TIME_SYSTEM    = UTC
MEAN_ELEMENT_THEORY = SGP/SGP4

EPOCH          = 2025-12-28T23:31:33.244896
MEAN_MOTION    = 14.33969582
ECCENTRICITY   = .00338648
INCLINATION    = 99.1219
RA_OF_ASC_NODE = 7.4772
ARG_OF_PERICENTER = 103.9448
MEAN_ANOMALY   = 256.5505

EPHEMERIS_TYPE = 0
CLASSIFICATION_TYPE = U
NORAD_CAT_ID   = 733
ELEMENT_SET_NO = 999
REV_AT_EPOCH   = 22816
BSTAR          = .13652811E-3
MEAN_MOTION_DOT = .335E-5
MEAN_MOTION_DDOT = 0

CCSDS_OMM_VERS = 2.0
CREATION_DATE  = 
ORIGINATOR     = 

OBJECT_NAME    = SL-3 R/B
OBJECT_ID      = 1964-053B
CENTER_NAME    = EARTH
REF_FRAME      = TEME
TIME_SYSTEM    = UTC
MEAN_ELEMENT_THEORY = SGP/SGP4

EPOCH          = 2025-12-29T11:26:19.441824
MEAN_MOTION    = 14.61288999
ECCENTRICITY   = .0075276
INCLINATION    = 65.0752
RA_OF_ASC_NODE = 177.0721
ARG_OF_PERICENTER = 314.8312
MEAN_ANOMALY   = 44.6685

EPHEMERIS_TYPE = 0
CLASSIFICATION_TYPE = U
NORAD_CAT_ID   = 877
ELEMENT_SET_NO = 999
REV_AT_EPOCH   = 25653
BSTAR          = .99115E-4
MEAN_MOTION_DOT = .385E-5
MEAN_MOTION_DDOT = 0

CCSDS_OMM_VERS = 2.0
CREATION_DATE  = 
ORIGINATOR     = 

OBJECT_NAME    = SL-8 R/B
OBJECT_ID      = 1967-045B
CENTER_NAME    = EARTH
REF_FRAME      = TEME
TIME_SYSTEM    = UTC
MEAN_ELEMENT_THEORY = SGP/SGP4

EPOCH          = 2025-12-29T11:18:56.869056
MEAN_MOTION    = 14.45555844
ECCENTRICITY   = .0063461
INCLINATION    = 74.0115
RA_OF_ASC_NODE = 119.2203
ARG_OF_PERICENTER = 144.3665
MEAN_ANOMALY   = 216.1756

EPHEMERIS_TYPE = 0
CLASSIFICATION_TYPE = U
NORAD_CAT_ID   = 2802
ELEMENT_SET_NO = 999
REV_AT_EPOCH   = 7887
BSTAR          = .19351E-3
MEAN_MOTION_DOT = .672E-5
MEAN_MOTION_DDOT = 0

CCSDS_OMM_VERS = 2.0
CREATION_DATE  = 
ORIGINATOR     = 

OBJECT_NAME    = SL-8 R/B
OBJECT_ID      = 1968-040B
CENTER_NAME    = EARTH
REF_FRAME      = TEME
TIME_SYSTEM    = UTC
MEAN_ELEMENT_THEORY = SGP/SGP4

EPOCH          = 2025-12-29T10:02:48.179616
MEAN_MOTION    = 15.02654593
ECCENTRICITY   = .002632
INCLINATION    = 74.0321
RA_OF_ASC_NODE = 97.2164
ARG_OF_PERICENTER = 296.1027
MEAN_ANOMALY   = 63.7452

EPHEMERIS_TYPE = 0
CLASSIFICATION_TYPE = U
NORAD_CAT_ID   = 3230
ELEMENT_SET_NO = 999
REV_AT_EPOCH   = 7945
BSTAR          = .45868E-3
MEAN_MOTION_DOT = .6125E-4
MEAN_MOTION_DDOT = 0

CCSDS_OMM_VERS = 2.0
CREATION_DATE  = 
ORIGINATOR     = 

OBJECT_NAME    = OAO 2
OBJECT_ID      = 1968-110A
CENTER_NAME    = EARTH
REF_FRAME      = TEME
TIME_SYSTEM    = UTC
MEAN_ELEMENT_THEORY = SGP/SGP4

EPOCH          = 2025-12-29T00:00:53.337312
MEAN_MOTION    = 14.47254757
ECCENTRICITY   = .00055867
INCLINATION    = 34.9945
RA_OF_ASC_NODE = 299.8834
ARG_OF_PERICENTER = 343.6627
MEAN_ANOMALY   = 16.3883

EPHEMERIS_TYPE = 0
CLASSIFICATION_TYPE = U
NORAD_CAT_ID   = 3597
ELEMENT_SET_NO = 999
REV_AT_EPOCH   = 885
BSTAR          = .11209796E-3
MEAN_MOTION_DOT = .396E-5
MEAN_MOTION_DDOT = 0

CCSDS_OMM_VERS = 2.0
CREATION_DATE  = 
ORIGINATOR     = 

OBJECT_NAME    = ISIS 1
OBJECT_ID      = 1969-009A
CENTER_NAME    = EARTH
REF_FRAME      = TEME
TIME_SYSTEM    = UTC
MEAN_ELEMENT_THEORY = SGP/SGP4

EPOCH          = 2025-12-28T21:41:51.920160
MEAN_MOTION    = 11.30363476
ECCENTRICITY   = .17071956
INCLINATION    = 88.4497
RA_OF_ASC_NODE = 163.0283
ARG_OF_PERICENTER = 232.0317
MEAN_ANOMALY   = 111.4118

EPHEMERIS_TYPE = 0
CLASSIFICATION_TYPE = U
NORAD_CAT_ID   = 3669
ELEMENT_SET_NO = 999
REV_AT_EPOCH   = 34053
BSTAR          = .33443375E-3
MEAN_MOTION_DOT = .466E-5
MEAN_MOTION_DDOT = 0

CCSDS_OMM_VERS = 2.0
CREATION_DATE  = 
ORIGINATOR     = 

OBJECT_NAME    = SERT 2
OBJECT_ID      = 1970-009A
CENTER_NAME    = EARTH
REF_FRAME      = TEME
TIME_SYSTEM    = UTC
MEAN_ELEMENT_THEORY = SGP/SGP4

EPOCH          = 2025-12-29T11:00:13.053024
MEAN_MOTION    = 13.58720200
ECCENTRICITY   = .0004861
INCLINATION    = 99.2673
RA_OF_ASC_NODE = 305.4277
ARG_OF_PERICENTER = 354.9076
MEAN_ANOMALY   = 112.7044

EPHEMERIS_TYPE = 0
CLASSIFICATION_TYPE = U
NORAD_CAT_ID   = 4327
ELEMENT_SET_NO = 999
REV_AT_EPOCH   = 77035
BSTAR          = .9505E-4
MEAN_MOTION_DOT = .28E-6
MEAN_MOTION_DDOT = 0

CCSDS_OMM_VERS = 2.0
CREATION_DATE  = 
ORIGINATOR     = 

OBJECT_NAME    = SL-3 R/B
OBJECT_ID      = 1971-028B
CENTER_NAME    = EARTH
REF_FRAME      = TEME
TIME_SYSTEM    = UTC
MEAN_ELEMENT_THEORY = SGP/SGP4

EPOCH          = 2025-12-29T11:18:59.948352
MEAN_MOTION    = 15.55529465
ECCENTRICITY   = .001886
INCLINATION    = 81.2373
RA_OF_ASC_NODE = 138.3828
ARG_OF_PERICENTER = 180.6681
MEAN_ANOMALY   = 179.4547

EPHEMERIS_TYPE = 0
CLASSIFICATION_TYPE = U
NORAD_CAT_ID   = 5118
ELEMENT_SET_NO = 999
REV_AT_EPOCH   = 97773
BSTAR          = .68301E-3
MEAN_MOTION_DOT = .47275E-3
MEAN_MOTION_DDOT = 0

CCSDS_OMM_VERS = 2.0
CREATION_DATE  = 
ORIGINATOR     = 

OBJECT_NAME    = ASTEX 1
OBJECT_ID      = 1971-089A
CENTER_NAME    = EARTH
REF_FRAME      = TEME
TIME_SYSTEM    = UTC
MEAN_ELEMENT_THEORY = SGP/SGP4

EPOCH          = 2025-12-28T21:57:40.072032
MEAN_MOTION    = 14.50663427
ECCENTRICITY   = .00143253
INCLINATION    = 92.7151
RA_OF_ASC_NODE = 128.8536
ARG_OF_PERICENTER = 331.0226
MEAN_ANOMALY   = 29.0183

EPHEMERIS_TYPE = 0
CLASSIFICATION_TYPE = U
NORAD_CAT_ID   = 5560
ELEMENT_SET_NO = 999
REV_AT_EPOCH   = 85204
BSTAR          = .20991786E-3
MEAN_MOTION_DOT = .824E-5
MEAN_MOTION_DDOT = 0

CCSDS_OMM_VERS = 2.0
CREATION_DATE  = 
ORIGINATOR     = 

OBJECT_NAME    = SL-8 R/B
OBJECT_ID      = 1971-119B
CENTER_NAME    = EARTH
REF_FRAME      = TEME
TIME_SYSTEM    = UTC
MEAN_ELEMENT_THEORY = SGP/SGP4

EPOCH          = 2025-12-29T06:25:30.770400
MEAN_MOTION    = 14.36144555
ECCENTRICITY   = .055797
INCLINATION    = 73.8890
RA_OF_ASC_NODE = 307.1819
ARG_OF_PERICENTER = 288.1286
MEAN_ANOMALY   = 65.9881

EPHEMERIS_TYPE = 0
CLASSIFICATION_TYPE = U
NORAD_CAT_ID   = 5730
ELEMENT_SET_NO = 999
REV_AT_EPOCH   = 64537
BSTAR          = .76096E-3
MEAN_MOTION_DOT = .14678E-3
MEAN_MOTION_DDOT = 0

CCSDS_OMM_VERS = 2.0
CREATION_DATE  = 
ORIGINATOR     = 

OBJECT_NAME    = OAO 3 (COPERNICUS)
OBJECT_ID      = 1972-065A
CENTER_NAME    = EARTH
REF_FRAME      = TEME
TIME_SYSTEM    = UTC
MEAN_ELEMENT_THEORY = SGP/SGP4

EPOCH          = 2025-12-28T16:48:25.903584
MEAN_MOTION    = 14.59921498
ECCENTRICITY   = .00071549
INCLINATION    = 35.0072
RA_OF_ASC_NODE = 341.7472
ARG_OF_PERICENTER = 296.8325
MEAN_ANOMALY   = 228.5639

EPHEMERIS_TYPE = 0
CLASSIFICATION_TYPE = U
NORAD_CAT_ID   = 6153
ELEMENT_SET_NO = 999
REV_AT_EPOCH   = 83581
BSTAR          = .12334554E-3
MEAN_MOTION_DOT = .579E-5
MEAN_MOTION_DDOT = 0

