ATLAS CENTAUR 2         
1 00694U 63047A   25362.06778007  .00002352  00000+0  27568-3 0  9994
2 00694  30.3530 235.8352 0548608 169.2070 192.0853 14.11826180121496
THOR AGENA D R/B        
1 00733U 64002A   25362.98024589  .00000335  00000+0  13653-3 0  9999
2 00733  99.1219   7.4772 0033864 103.9448 256.5505 14.33969582228163
SL-3 R/B                
1 00877U 64053B   25363.47661391  .00000385  00000+0  99115-4 0  9990
2 00877  65.0752 177.0721 0075276 314.8312  44.6685 14.61288999256534
SL-8 R/B                
1 02802U 67045B   25363.47149154  .00000672  00000+0  19351-3 0  9994
2 02802  74.0115 119.2203 0063461 144.3665 216.1756 14.45555844 78872
SL-8 R/B                
1 03230U 68040B   25363.41861319  .00006125  00000+0  45868-3 0  9995
2 03230  74.0321  97.2164 0026320 296.1027  63.7452 15.02654593 79458
OAO 2                   
1 03597U 68110A   25363.00061733  .00000396  00000+0  11210-3 0  9994
2 03597  34.9945 299.8834 0005586 343.6627  16.3883 14.47254757  8854
ISIS 1                  
1 03669U 69009A   25362.90407315  .00000466  00000+0  33443-3 0  9990
2 03669  88.4497 163.0283 1707195 232.0317 111.4118 11.30363476340533
SERT 2                  
1 04327U 70009A   25363.45848441  .00000028  00000+0  95050-4 0  9991
2 04327  99.2673 305.4277 0004861 354.9076 112.7044 13.58720200770354
SL-3 R/B                
1 05118U 71028B   25363.47152718  .00047275  00000+0  68301-3 0  9992
2 05118  81.2373 138.3828 0018860 180.6681 179.4547 15.55529465977734
ASTEX 1                 
1 05560U 71089A   25362.91504713  .00000824  00000+0  20992-3 0  9997
2 05560  92.7151 128.8536 0014325 331.0226  29.0183 14.50663427852048
SL-8 R/B                
1 05730U 71119B   25363.26771725  .00014678  00000+0  76096-3 0  9996
2 05730  73.8890 307.1819 0557970 288.1286  65.9881 14.36144555645379
OAO 3 (COPERNICUS)      
1 06153U 72065A   25362.70029981  .00000579  00000+0  12335-3 0  9996
2 06153  35.0072 341.7472 0007154 296.8325 228.5639 14.59921498835816
